start=new Date('2022-03-03T00:00:00.000Z').valueOf();
sats=[{"TLE_LINE2":"2 46067  53.0536 206.6011 0001564  80.0394 280.0772 15.06398246 88054","OBJECT_NAME":"STARLINK-1529","LAUNCH_DATE":"2020-08-07","REF_FRAME":"TEME","APOAPSIS":"548.302","OBJECT_ID":"2020-055AS","REV_AT_EPOCH":"8805","MEAN_MOTION_DOT":"0.00000123","BSTAR":"0.00002718900000","MEAN_MOTION":"15.06398246","SEMIMAJOR_AXIS":"6925.354","RCS_SIZE":"LARGE","MEAN_ANOMALY":"280.0772","DECAY_DATE":null,"COUNTRY_CODE":"US","CENTER_NAME":"EARTH","INCLINATION":"53.0536","EPOCH":"2022-03-02T17:13:45.040224","CLASSIFICATION_TYPE":"U","GP_ID":"197656941","MEAN_ELEMENT_THEORY":"SGP4","RA_OF_ASC_NODE":"206.6011","ELEMENT_SET_NO":"999","SITE":"AFETR","TIME_SYSTEM":"UTC","ARG_OF_PERICENTER":"80.0394","MEAN_MOTION_DDOT":"0.0000000000000","PERIOD":"95.592","NORAD_CAT_ID":"46067","FILE":"3341695","EPHEMERIS_TYPE":"0","OBJECT_TYPE":"PAYLOAD","ECCENTRICITY":"0.00015640","TLE_LINE1":"1 46067U 20055AS  22061.71788241  .00000123  00000-0  27189-4 0  9991","PERIAPSIS":"546.136"},{"REF_FRAME":"TEME","LAUNCH_DATE":"2020-08-07","OBJECT_NAME":"STARLINK-1532","APOAPSIS":"548.200","TLE_LINE2":"2 46068  53.0548 206.5435 0001414  70.8500 289.2642 15.06397537 88056","OBJECT_ID":"2020-055AT","MEAN_MOTION":"15.06397537","SEMIMAJOR_AXIS":"6925.356","BSTAR":"0.00010324000000","MEAN_ANOMALY":"289.2642","RCS_SIZE":"LARGE","MEAN_MOTION_DOT":"0.00001257","REV_AT_EPOCH":"8805","CENTER_NAME":"EARTH","EPOCH":"2022-03-02T17:29:40.500672","INCLINATION":"53.0548","COUNTRY_CODE":"US","DECAY_DATE":null,"MEAN_ELEMENT_THEORY":"SGP4","ELEMENT_SET_NO":"999","RA_OF_ASC_NODE":"206.5435","CLASSIFICATION_TYPE":"U","GP_ID":"197656692","TIME_SYSTEM":"UTC","ARG_OF_PERICENTER":"70.8500","SITE":"AFETR","FILE":"3341695","EPHEMERIS_TYPE":"0","PERIOD":"95.592","NORAD_CAT_ID":"46068","MEAN_MOTION_DDOT":"0.0000000000000","TLE_LINE1":"1 46068U 20055AT  22061.72894098  .00001257  00000-0  10324-3 0  9992","PERIAPSIS":"546.242","ECCENTRICITY":"0.00014140","OBJECT_TYPE":"PAYLOAD"},{"MEAN_MOTION_DDOT":"0.0000000000000","NORAD_CAT_ID":"46069","PERIOD":"95.592","EPHEMERIS_TYPE":"0","FILE":"3341695","OBJECT_TYPE":"PAYLOAD","PERIAPSIS":"546.321","TLE_LINE1":"1 46069U 20055AU  22061.81002155  .00000763  00000-0  70133-4 0  9994","ECCENTRICITY":"0.00012690","GP_ID":"197657444","CLASSIFICATION_TYPE":"U","ELEMENT_SET_NO":"999","RA_OF_ASC_NODE":"206.1762","MEAN_ELEMENT_THEORY":"SGP4","SITE":"AFETR","ARG_OF_PERICENTER":"73.0277","TIME_SYSTEM":"UTC","REV_AT_EPOCH":"8807","MEAN_MOTION_DOT":"0.00000763","RCS_SIZE":"LARGE","MEAN_ANOMALY":"287.0851","BSTAR":"0.00007013300000","SEMIMAJOR_AXIS":"6925.335","MEAN_MOTION":"15.06404467","COUNTRY_CODE":"US","DECAY_DATE":null,"INCLINATION":"53.0550","EPOCH":"2022-03-02T19:26:25.861920","CENTER_NAME":"EARTH","TLE_LINE2":"2 46069  53.0550 206.1762 0001269  73.0277 287.0851 15.06404467 88074","APOAPSIS":"548.079","OBJECT_NAME":"STARLINK-1533","LAUNCH_DATE":"2020-08-07","REF_FRAME":"TEME","OBJECT_ID":"2020-055AU"},{"MEAN_MOTION_DOT":"0.00000587","REV_AT_EPOCH":"8805","MEAN_ANOMALY":"283.5827","RCS_SIZE":"LARGE","SEMIMAJOR_AXIS":"6925.340","MEAN_MOTION":"15.06402767","BSTAR":"0.00005827800000","DECAY_DATE":null,"COUNTRY_CODE":"US","EPOCH":"2022-03-02T16:36:34.903296","INCLINATION":"53.0556","CENTER_NAME":"EARTH","TLE_LINE2":"2 46070  53.0556 206.7049 0001458  76.5325 283.5827 15.06402767 88051","APOAPSIS":"548.215","REF_FRAME":"TEME","LAUNCH_DATE":"2020-08-07","OBJECT_NAME":"STARLINK-1536","OBJECT_ID":"2020-055AV","PERIOD":"95.592","NORAD_CAT_ID":"46070","MEAN_MOTION_DDOT":"0.0000000000000","EPHEMERIS_TYPE":"0","FILE":"3341695","OBJECT_TYPE":"PAYLOAD","PERIAPSIS":"546.195","TLE_LINE1":"1 46070U 20055AV  22061.69207064  .00000587  00000-0  58278-4 0  9998","ECCENTRICITY":"0.00014580","GP_ID":"197657695","CLASSIFICATION_TYPE":"U","ELEMENT_SET_NO":"999","RA_OF_ASC_NODE":"206.7049","MEAN_ELEMENT_THEORY":"SGP4","SITE":"AFETR","ARG_OF_PERICENTER":"76.5325","TIME_SYSTEM":"UTC"},{"CENTER_NAME":"EARTH","EPOCH":"2022-03-02T17:03:06.842304","INCLINATION":"53.0528","DECAY_DATE":null,"COUNTRY_CODE":"US","MEAN_MOTION":"15.06406572","SEMIMAJOR_AXIS":"6925.328","BSTAR":"0.00007624400000","MEAN_ANOMALY":"290.1595","RCS_SIZE":"LARGE","MEAN_MOTION_DOT":"0.00000855","REV_AT_EPOCH":"8805","OBJECT_ID":"2020-055AW","REF_FRAME":"TEME","LAUNCH_DATE":"2020-08-07","OBJECT_NAME":"STARLINK-1538","APOAPSIS":"548.130","TLE_LINE2":"2 46071  53.0528 206.6271 0001352  69.9539 290.1595 15.06406572 88057","ECCENTRICITY":"0.00013520","TLE_LINE1":"1 46071U 20055AW  22061.71049586  .00000855  00000-0  76244-4 0  9996","PERIAPSIS":"546.257","OBJECT_TYPE":"PAYLOAD","FILE":"3341695","EPHEMERIS_TYPE":"0","NORAD_CAT_ID":"46071","PERIOD":"95.592","MEAN_MOTION_DDOT":"0.0000000000000","TIME_SYSTEM":"UTC","ARG_OF_PERICENTER":"69.9539","SITE":"AFETR","MEAN_ELEMENT_THEORY":"SGP4","RA_OF_ASC_NODE":"206.6271","ELEMENT_SET_NO":"999","CLASSIFICATION_TYPE":"U","GP_ID":"197656442"},{"TLE_LINE1":"1 46072U 20055AX  22061.80169934  .00000802  00000-0  72695-4 0  9995","ECCENTRICITY":"0.00015970","PERIAPSIS":"546.077","OBJECT_TYPE":"PAYLOAD","EPHEMERIS_TYPE":"0","FILE":"3341695","PERIOD":"95.591","NORAD_CAT_ID":"46072","MEAN_MOTION_DDOT":"0.0000000000000","ARG_OF_PERICENTER":"67.0679","TIME_SYSTEM":"UTC","SITE":"AFETR","ELEMENT_SET_NO":"999","RA_OF_ASC_NODE":"206.2246","MEAN_ELEMENT_THEORY":"SGP4","GP_ID":"197657192","CLASSIFICATION_TYPE":"U","EPOCH":"2022-03-02T19:14:26.822976","INCLINATION":"53.0562","CENTER_NAME":"EARTH","COUNTRY_CODE":"US","DECAY_DATE":null,"MEAN_ANOMALY":"293.0478","RCS_SIZE":"LARGE","SEMIMAJOR_AXIS":"6925.318","MEAN_MOTION":"15.06410118","BSTAR":"0.00007269500000","MEAN_MOTION_DOT":"0.00000802","REV_AT_EPOCH":"8805","OBJECT_ID":"2020-055AX","APOAPSIS":"548.289","REF_FRAME":"TEME","LAUNCH_DATE":"2020-08-07","OBJECT_NAME":"STARLINK-1539","TLE_LINE2":"2 46072  53.0562 206.2246 0001597  67.0679 293.0478 15.06410118 88052"},{"OBJECT_TYPE":"PAYLOAD","PERIAPSIS":"546.362","TLE_LINE1":"1 46073U 20055AY  22061.68470875 -.00000731  00000-0 -30202-4 0  9992","ECCENTRICITY":"0.00012470","NORAD_CAT_ID":"46073","PERIOD":"95.592","MEAN_MOTION_DDOT":"0.0000000000000","FILE":"3341695","EPHEMERIS_TYPE":"0","SITE":"AFETR","TIME_SYSTEM":"UTC","ARG_OF_PERICENTER":"67.8927","CLASSIFICATION_TYPE":"U","GP_ID":"197657944","MEAN_ELEMENT_THEORY":"SGP4","RA_OF_ASC_NODE":"206.7579","ELEMENT_SET_NO":"999","DECAY_DATE":null,"COUNTRY_CODE":"US","CENTER_NAME":"EARTH","EPOCH":"2022-03-02T16:25:58.836000","INCLINATION":"53.0544","MEAN_MOTION_DOT":"-0.00000731","REV_AT_EPOCH":"8804","SEMIMAJOR_AXIS":"6925.361","MEAN_MOTION":"15.06396099","BSTAR":"-0.00003020200000","MEAN_ANOMALY":"292.2194","RCS_SIZE":"LARGE","OBJECT_ID":"2020-055AY","TLE_LINE2":"2 46073  53.0544 206.7579 0001247  67.8927 292.2194 15.06396099 88049","REF_FRAME":"TEME","LAUNCH_DATE":"2020-08-07","OBJECT_NAME":"STARLINK-1542","APOAPSIS":"548.089"},{"FILE":"3341695","EPHEMERIS_TYPE":"0","MEAN_MOTION_DDOT":"0.0000000000000","NORAD_CAT_ID":"46074","PERIOD":"95.592","PERIAPSIS":"546.038","TLE_LINE1":"1 46074U 20055AZ  22061.80265267  .00000850  00000-0  75960-4 0  9994","ECCENTRICITY":"0.00016870","OBJECT_TYPE":"PAYLOAD","MEAN_ELEMENT_THEORY":"SGP4","ELEMENT_SET_NO":"999","RA_OF_ASC_NODE":"206.2148","CLASSIFICATION_TYPE":"U","GP_ID":"197658195","TIME_SYSTEM":"UTC","ARG_OF_PERICENTER":"58.7359","SITE":"AFETR","BSTAR":"0.00007596000000","SEMIMAJOR_AXIS":"6925.341","MEAN_MOTION":"15.06402338","RCS_SIZE":"LARGE","MEAN_ANOMALY":"301.3795","REV_AT_EPOCH":"8805","MEAN_MOTION_DOT":"0.00000850","CENTER_NAME":"EARTH","INCLINATION":"53.0538","EPOCH":"2022-03-02T19:15:49.190688","COUNTRY_CODE":"US","DECAY_DATE":null,"OBJECT_NAME":"STARLINK-1549","LAUNCH_DATE":"2020-08-07","REF_FRAME":"TEME","APOAPSIS":"548.375","TLE_LINE2":"2 46074  53.0538 206.2148 0001687  58.7359 301.3795 15.06402338 88050","OBJECT_ID":"2020-055AZ"},{"OBJECT_TYPE":"PAYLOAD","PERIAPSIS":"546.261","TLE_LINE1":"1 46075U 20055BA  22061.82846254 -.00001628  00000-0 -90455-4 0  9990","ECCENTRICITY":"0.00014070","MEAN_MOTION_DDOT":"0.0000000000000","PERIOD":"95.593","NORAD_CAT_ID":"46075","EPHEMERIS_TYPE":"0","FILE":"3341695","SITE":"AFETR","ARG_OF_PERICENTER":"69.3218","TIME_SYSTEM":"UTC","GP_ID":"197656942","CLASSIFICATION_TYPE":"U","RA_OF_ASC_NODE":"206.1016","ELEMENT_SET_NO":"999","MEAN_ELEMENT_THEORY":"SGP4","COUNTRY_CODE":"US","DECAY_DATE":null,"INCLINATION":"53.0533","EPOCH":"2022-03-02T19:52:59.163456","CENTER_NAME":"EARTH","REV_AT_EPOCH":"8806","MEAN_MOTION_DOT":"-0.00001628","RCS_SIZE":"LARGE","MEAN_ANOMALY":"290.7922","BSTAR":"-0.00009045500000","SEMIMAJOR_AXIS":"6925.371","MEAN_MOTION":"15.06392718","OBJECT_ID":"2020-055BA","TLE_LINE2":"2 46075  53.0533 206.1016 0001407  69.3218 290.7922 15.06392718 88065","APOAPSIS":"548.210","OBJECT_NAME":"STARLINK-1551","LAUNCH_DATE":"2020-08-07","REF_FRAME":"TEME"},{"OBJECT_TYPE":"PAYLOAD","TLE_LINE1":"1 46076U 20055BB  22061.72156377  .00000801  00000-0  72643-4 0  9999","ECCENTRICITY":"0.00014530","PERIAPSIS":"546.204","MEAN_MOTION_DDOT":"0.0000000000000","PERIOD":"95.592","NORAD_CAT_ID":"46076","EPHEMERIS_TYPE":"0","FILE":"3341695","SITE":"AFETR","ARG_OF_PERICENTER":"65.2454","TIME_SYSTEM":"UTC","GP_ID":"197656693","CLASSIFICATION_TYPE":"U","ELEMENT_SET_NO":"999","RA_OF_ASC_NODE":"206.5892","MEAN_ELEMENT_THEORY":"SGP4","COUNTRY_CODE":"US","DECAY_DATE":null,"INCLINATION":"53.0540","EPOCH":"2022-03-02T17:19:03.109728","CENTER_NAME":"EARTH","REV_AT_EPOCH":"8803","MEAN_MOTION_DOT":"0.00000801","RCS_SIZE":"LARGE","MEAN_ANOMALY":"294.8686","BSTAR":"0.00007264300000","MEAN_MOTION":"15.06401205","SEMIMAJOR_AXIS":"6925.345","OBJECT_ID":"2020-055BB","TLE_LINE2":"2 46076  53.0540 206.5892 0001453  65.2454 294.8686 15.06401205 88039","APOAPSIS":"548.216","OBJECT_NAME":"STARLINK-1552","LAUNCH_DATE":"2020-08-07","REF_FRAME":"TEME"}];
